<?xml version="1.0" encoding="UTF-8"?>
<ndm xmlns:xsi="http://www.w3.org/2001/XMLSchema-instance" xsi:noNamespaceSchemaLocation="https://sanaregistry.org/r/ndmxml_unqualified/ndmxml-2.0.0-master-2.0.xsd">
<omm id="CCSDS_OMM_VERS" version="2.0">
<header><CREATION_DATE/><ORIGINATOR/></header><body><segment><metadata><OBJECT_NAME>ONEWEB-0393</OBJECT_NAME><OBJECT_ID>2021-132E</OBJECT_ID><CENTER_NAME>EARTH</CENTER_NAME><REF_FRAME>TEME</REF_FRAME><TIME_SYSTEM>UTC</TIME_SYSTEM><MEAN_ELEMENT_THEORY>SGP4</MEAN_ELEMENT_THEORY></metadata><data><meanElements><EPOCH>2024-04-24T13:03:22.680000</EPOCH><MEAN_MOTION>13.17650569</MEAN_MOTION><ECCENTRICITY>.0002345</ECCENTRICITY><INCLINATION>87.9207</INCLINATION><RA_OF_ASC_NODE>161.7825</RA_OF_ASC_NODE><ARG_OF_PERICENTER>88.4694</ARG_OF_PERICENTER><MEAN_ANOMALY>271.6706</MEAN_ANOMALY></meanElements><tleParameters><EPHEMERIS_TYPE>0</EPHEMERIS_TYPE><CLASSIFICATION_TYPE>U</CLASSIFICATION_TYPE><NORAD_CAT_ID>50473</NORAD_CAT_ID><ELEMENT_SET_NO>999</ELEMENT_SET_NO><REV_AT_EPOCH>11620</REV_AT_EPOCH><BSTAR>.40041E-4</BSTAR><MEAN_MOTION_DOT>.28E-6</MEAN_MOTION_DOT><MEAN_MOTION_DDOT>0</MEAN_MOTION_DDOT></tleParameters></data></segment></body></omm>
<omm id="CCSDS_OMM_VERS" version="2.0">
<header><CREATION_DATE/><ORIGINATOR/></header><body><segment><metadata><OBJECT_NAME>ONEWEB-0394</OBJECT_NAME><OBJECT_ID>2021-132F</OBJECT_ID><CENTER_NAME>EARTH</CENTER_NAME><REF_FRAME>TEME</REF_FRAME><TIME_SYSTEM>UTC</TIME_SYSTEM><MEAN_ELEMENT_THEORY>SGP4</MEAN_ELEMENT_THEORY></metadata><data><meanElements><EPOCH>2024-04-24T12:30:34.583040</EPOCH><MEAN_MOTION>13.18687748</MEAN_MOTION><ECCENTRICITY>.000204</ECCENTRICITY><INCLINATION>87.9124</INCLINATION><RA_OF_ASC_NODE>131.4594</RA_OF_ASC_NODE><ARG_OF_PERICENTER>89.5679</ARG_OF_PERICENTER><MEAN_ANOMALY>270.5687</MEAN_ANOMALY></meanElements><tleParameters><EPHEMERIS_TYPE>0</EPHEMERIS_TYPE><CLASSIFICATION_TYPE>U</CLASSIFICATION_TYPE><NORAD_CAT_ID>50474</NORAD_CAT_ID><ELEMENT_SET_NO>999</ELEMENT_SET_NO><REV_AT_EPOCH>11831</REV_AT_EPOCH><BSTAR>-.81319E-4</BSTAR><MEAN_MOTION_DOT>-.19E-6</MEAN_MOTION_DOT><MEAN_MOTION_DDOT>0</MEAN_MOTION_DDOT></tleParameters></data></segment></body></omm>
<omm id="CCSDS_OMM_VERS" version="2.0">
<header><CREATION_DATE/><ORIGINATOR/></header><body><segment><metadata><OBJECT_NAME>ONEWEB-0395</OBJECT_NAME><OBJECT_ID>2021-132G</OBJECT_ID><CENTER_NAME>EARTH</CENTER_NAME><REF_FRAME>TEME</REF_FRAME><TIME_SYSTEM>UTC</TIME_SYSTEM><MEAN_ELEMENT_THEORY>SGP4</MEAN_ELEMENT_THEORY></metadata><data><meanElements><EPOCH>2024-04-24T16:13:15.898944</EPOCH><MEAN_MOTION>13.11419152</MEAN_MOTION><ECCENTRICITY>.0002276</ECCENTRICITY><INCLINATION>87.9010</INCLINATION><RA_OF_ASC_NODE>176.9407</RA_OF_ASC_NODE><ARG_OF_PERICENTER>93.4956</ARG_OF_PERICENTER><MEAN_ANOMALY>266.6433</MEAN_ANOMALY></meanElements><tleParameters><EPHEMERIS_TYPE>0</EPHEMERIS_TYPE><CLASSIFICATION_TYPE>U</CLASSIFICATION_TYPE><NORAD_CAT_ID>50475</NORAD_CAT_ID><ELEMENT_SET_NO>999</ELEMENT_SET_NO><REV_AT_EPOCH>11429</REV_AT_EPOCH><BSTAR>-.2332E-3</BSTAR><MEAN_MOTION_DOT>-.7E-6</MEAN_MOTION_DOT><MEAN_MOTION_DDOT>0</MEAN_MOTION_DDOT></tleParameters></data></segment></body></omm>
<omm id="CCSDS_OMM_VERS" version="2.0">
<header><CREATION_DATE/><ORIGINATOR/></header><body><segment><metadata><OBJECT_NAME>ONEWEB-0396</OBJECT_NAME><OBJECT_ID>2021-132H</OBJECT_ID><CENTER_NAME>EARTH</CENTER_NAME><REF_FRAME>TEME</REF_FRAME><TIME_SYSTEM>UTC</TIME_SYSTEM><MEAN_ELEMENT_THEORY>SGP4</MEAN_ELEMENT_THEORY></metadata><data><meanElements><EPOCH>2024-04-24T14:10:44.245632</EPOCH><MEAN_MOTION>13.18688150</MEAN_MOTION><ECCENTRICITY>.0001986</ECCENTRICITY><INCLINATION>87.9126</INCLINATION><RA_OF_ASC_NODE>131.4399</RA_OF_ASC_NODE><ARG_OF_PERICENTER>88.6548</ARG_OF_PERICENTER><MEAN_ANOMALY>271.4812</MEAN_ANOMALY></meanElements><tleParameters><EPHEMERIS_TYPE>0</EPHEMERIS_TYPE><CLASSIFICATION_TYPE>U</CLASSIFICATION_TYPE><NORAD_CAT_ID>50476</NORAD_CAT_ID><ELEMENT_SET_NO>999</ELEMENT_SET_NO><REV_AT_EPOCH>11963</REV_AT_EPOCH><BSTAR>.45485E-3</BSTAR><MEAN_MOTION_DOT>.192E-5</MEAN_MOTION_DOT><MEAN_MOTION_DDOT>0</MEAN_MOTION_DDOT></tleParameters></data></segment></body></omm>
<omm id="CCSDS_OMM_VERS" version="2.0">
<header><CREATION_DATE/><ORIGINATOR/></header><body><segment><metadata><OBJECT_NAME>ONEWEB-0397</OBJECT_NAME><OBJECT_ID>2021-132J</OBJECT_ID><CENTER_NAME>EARTH</CENTER_NAME><REF_FRAME>TEME</REF_FRAME><TIME_SYSTEM>UTC</TIME_SYSTEM><MEAN_ELEMENT_THEORY>SGP4</MEAN_ELEMENT_THEORY></metadata><data><meanElements><EPOCH>2024-04-24T14:31:13.177632</EPOCH><MEAN_MOTION>13.18687751</MEAN_MOTION><ECCENTRICITY>.0002003</ECCENTRICITY><INCLINATION>87.9128</INCLINATION><RA_OF_ASC_NODE>131.4386</RA_OF_ASC_NODE><ARG_OF_PERICENTER>86.0490</ARG_OF_PERICENTER><MEAN_ANOMALY>274.0871</MEAN_ANOMALY></meanElements><tleParameters><EPHEMERIS_TYPE>0</EPHEMERIS_TYPE><CLASSIFICATION_TYPE>U</CLASSIFICATION_TYPE><NORAD_CAT_ID>50477</NORAD_CAT_ID><ELEMENT_SET_NO>999</ELEMENT_SET_NO><REV_AT_EPOCH>11961</REV_AT_EPOCH><BSTAR>.10251E-4</BSTAR><MEAN_MOTION_DOT>.17E-6</MEAN_MOTION_DOT><MEAN_MOTION_DDOT>0</MEAN_MOTION_DDOT></tleParameters></data></segment></body></omm>
<omm id="CCSDS_OMM_VERS" version="2.0">
<header><CREATION_DATE/><ORIGINATOR/></header><body><segment><metadata><OBJECT_NAME>ONEWEB-0398</OBJECT_NAME><OBJECT_ID>2021-132K</OBJECT_ID><CENTER_NAME>EARTH</CENTER_NAME><REF_FRAME>TEME</REF_FRAME><TIME_SYSTEM>UTC</TIME_SYSTEM><MEAN_ELEMENT_THEORY>SGP4</MEAN_ELEMENT_THEORY></metadata><data><meanElements><EPOCH>2024-04-24T13:36:38.274624</EPOCH><MEAN_MOTION>13.11413602</MEAN_MOTION><ECCENTRICITY>.0002469</ECCENTRICITY><INCLINATION>87.9003</INCLINATION><RA_OF_ASC_NODE>176.9448</RA_OF_ASC_NODE><ARG_OF_PERICENTER>98.4234</ARG_OF_PERICENTER><MEAN_ANOMALY>261.7174</MEAN_ANOMALY></meanElements><tleParameters><EPHEMERIS_TYPE>0</EPHEMERIS_TYPE><CLASSIFICATION_TYPE>U</CLASSIFICATION_TYPE><NORAD_CAT_ID>50478</NORAD_CAT_ID><ELEMENT_SET_NO>999</ELEMENT_SET_NO><REV_AT_EPOCH>11290</REV_AT_EPOCH><BSTAR>-.91924E-3</BSTAR><MEAN_MOTION_DOT>-.313E-5</MEAN_MOTION_DOT><MEAN_MOTION_DDOT>0</MEAN_MOTION_DDOT></tleParameters></data></segment></body></omm>
<omm id="CCSDS_OMM_VERS" version="2.0">
<header><CREATION_DATE/><ORIGINATOR/></header><body><segment><metadata><OBJECT_NAME>ONEWEB-0399</OBJECT_NAME><OBJECT_ID>2021-132L</OBJECT_ID><CENTER_NAME>EARTH</CENTER_NAME><REF_FRAME>TEME</REF_FRAME><TIME_SYSTEM>UTC</TIME_SYSTEM><MEAN_ELEMENT_THEORY>SGP4</MEAN_ELEMENT_THEORY></metadata><data><meanElements><EPOCH>2024-04-24T13:15:37.148256</EPOCH><MEAN_MOTION>13.11415027</MEAN_MOTION><ECCENTRICITY>.0001712</ECCENTRICITY><INCLINATION>87.9006</INCLINATION><RA_OF_ASC_NODE>176.9626</RA_OF_ASC_NODE><ARG_OF_PERICENTER>90.2737</ARG_OF_PERICENTER><MEAN_ANOMALY>269.8587</MEAN_ANOMALY></meanElements><tleParameters><EPHEMERIS_TYPE>0</EPHEMERIS_TYPE><CLASSIFICATION_TYPE>U</CLASSIFICATION_TYPE><NORAD_CAT_ID>50479</NORAD_CAT_ID><ELEMENT_SET_NO>999</ELEMENT_SET_NO><REV_AT_EPOCH>11289</REV_AT_EPOCH><BSTAR>.10012E-2</BSTAR><MEAN_MOTION_DOT>.368E-5</MEAN_MOTION_DOT><MEAN_MOTION_DDOT>0</MEAN_MOTION_DDOT></tleParameters></data></segment></body></omm>
<omm id="CCSDS_OMM_VERS" version="2.0">
<header><CREATION_DATE/><ORIGINATOR/></header><body><segment><metadata><OBJECT_NAME>ONEWEB-0400</OBJECT_NAME><OBJECT_ID>2021-132M</OBJECT_ID><CENTER_NAME>EARTH</CENTER_NAME><REF_FRAME>TEME</REF_FRAME><TIME_SYSTEM>UTC</TIME_SYSTEM><MEAN_ELEMENT_THEORY>SGP4</MEAN_ELEMENT_THEORY></metadata><data><meanElements><EPOCH>2024-04-24T12:12:22.356576</EPOCH><MEAN_MOTION>13.18686879</MEAN_MOTION><ECCENTRICITY>.0002231</ECCENTRICITY><INCLINATION>87.9122</INCLINATION><RA_OF_ASC_NODE>131.4636</RA_OF_ASC_NODE><ARG_OF_PERICENTER>95.5420</ARG_OF_PERICENTER><MEAN_ANOMALY>264.5966</MEAN_ANOMALY></meanElements><tleParameters><EPHEMERIS_TYPE>0</EPHEMERIS_TYPE><CLASSIFICATION_TYPE>U</CLASSIFICATION_TYPE><NORAD_CAT_ID>50480</NORAD_CAT_ID><ELEMENT_SET_NO>999</ELEMENT_SET_NO><REV_AT_EPOCH>11832</REV_AT_EPOCH><BSTAR>-.99458E-4</BSTAR><MEAN_MOTION_DOT>-.26E-6</MEAN_MOTION_DOT><MEAN_MOTION_DDOT>0</MEAN_MOTION_DDOT></tleParameters></data></segment></body></omm>

</ndm>
