ONEWEB-0393             
1 50473U 21132E   24115.54401250  .00000028  00000+0  40041-4 0  9994
2 50473  87.9207 161.7825 0002345  88.4694 271.6706 13.17650569116209
ONEWEB-0394             
1 50474U 21132F   24115.52123360 -.00000019  00000+0 -81319-4 0  9991
2 50474  87.9124 131.4594 0002040  89.5679 270.5687 13.18687748118312
ONEWEB-0395             
1 50475U 21132G   24115.67587846 -.00000070  00000+0 -23320-3 0  9995
2 50475  87.9010 176.9407 0002276  93.4956 266.6433 13.11419152114290
ONEWEB-0396             
1 50476U 21132H   24115.59078988  .00000192  00000+0  45485-3 0  9998
2 50476  87.9126 131.4399 0001986  88.6548 271.4812 13.18688150119636
ONEWEB-0397             
1 50477U 21132J   24115.60501363  .00000017  00000+0  10251-4 0  9999
2 50477  87.9128 131.4386 0002003  86.0490 274.0871 13.18687751119612
ONEWEB-0398             
1 50478U 21132K   24115.56710966 -.00000313  00000+0 -91924-3 0  9992
2 50478  87.9003 176.9448 0002469  98.4234 261.7174 13.11413602112906
ONEWEB-0399             
1 50479U 21132L   24115.55251329  .00000368  00000+0  10012-2 0  9991
2 50479  87.9006 176.9626 0001712  90.2737 269.8587 13.11415027112894
ONEWEB-0400             
1 50480U 21132M   24115.50859209 -.00000026  00000+0 -99458-4 0  9995
2 50480  87.9122 131.4636 0002231  95.5420 264.5966 13.18686879118325
